SZ-21 MODULE            
1 66515U 25246C   25330.80982627  .00030080  00000+0  34523-3 0  9997
2 66515  41.4760 113.1404 0005006 158.6855 201.4193 15.61391034  1958
SHENZHOU-22             
1 66645U 25272A   25330.11960063  .00021667  00000+0  28092-3 0  9999
2 66645  41.4669 117.5336 0010804 271.9924  87.9677 15.58278261262012
CZ-2F R/B               
1 66646U 25272B   25330.47076975  .00449059  75676-5  29319-3 0  9998
2 66646  41.4431 114.9009 0121080 133.7676 227.3272 16.01945612   219
